{"type":"FeatureCollection","name":"divadmin_valldoreix","crs":{"type":"name","properties":{"name":"urn:ogc:def:crs:OGC:1.3:CRS84"}},"features":[{"type":"Feature","properties":{"id":1,"nom":"Entitat Municipal Descentralitzada de Valldoreix","data_alta":1958,"normativa":"https://www.valldoreix.cat/normativa/"},"geometry":{"type":"LineString","coordinates":[[2.055237788295073,41.44543093230581],[2.055343406581026,41.4456258473135],[2.055506249647602,41.44591826871932],[2.055534303077693,41.44603161496909],[2.055539010345042,41.44609030949871],[2.055596827480902,41.4461997073142],[2.055720888966892,41.4464344470524],[2.055812995536109,41.44662148960368],[2.055865266995964,41.44670020605025],[2.05592499018581,41.446887020628104],[2.055953731188923,41.44700990708387],[2.055978026948685,41.44711378688226],[2.05603343091268,41.447254296408595],[2.056096059743704,41.447384245644976],[2.056149777376932,41.447495704507226],[2.056221206514075,41.447603955412355],[2.056308101058347,41.447735643613065],[2.056375551334387,41.447867223583515],[2.05640593769677,41.44797237818506],[2.056437011880797,41.44816200289156],[2.056485911055402,41.44832759162172],[2.056526951475219,41.44846656737],[2.056588718509899,41.44859628566526],[2.056631867838943,41.448663023218124],[2.056754517451124,41.44876591990105],[2.056853206759345,41.44882307768108],[2.057060333763534,41.448830949800396],[2.057112159382022,41.44886533818743],[2.057143723820661,41.44895282211772],[2.057130798076539,41.44906618643849],[2.057114011786904,41.449213408757984],[2.057118492808435,41.449349375168126],[2.057180374613736,41.44946875555519],[2.057288329917944,41.44959468848618],[2.057428512331626,41.449758214384744],[2.057589396511745,41.44991749468198],[2.057612860932748,41.44994072509845],[2.05771818370425,41.449950969035434],[2.057755725944358,41.45005085221352],[2.057833744089263,41.45018966197118],[2.057902038931664,41.45036235595635],[2.057982666654765,41.45053360701246],[2.058004632149217,41.45064648502717],[2.058049456608708,41.450739480539525],[2.058115066068503,41.45081412036571],[2.058174353196602,41.450900287013305],[2.058197746607572,41.450985388057724],[2.058195437522784,41.45117024872591],[2.058584379988764,41.45114696050457],[2.058747124737983,41.45112263400081],[2.058910465296125,41.45105704736951],[2.059000215337069,41.45102742227038],[2.059169839114078,41.4510050496992],[2.059284405437106,41.45096836748764],[2.059349233458036,41.45091350286144],[2.059376356843138,41.45085758324667],[2.059421809358824,41.450808042603285],[2.059499569162664,41.45076883349931],[2.059637969082325,41.4507198061475],[2.059704952178847,41.4506998941202],[2.059797847321078,41.45064521506167],[2.059846201452189,41.450576927843805],[2.059872747687335,41.450500172529054],[2.059900445134955,41.45046522004355],[2.059970078645873,41.450438069788284],[2.06012579568238,41.450410605440226],[2.060260211594418,41.45039430651854],[2.060363644676461,41.45039816001162],[2.060415703361192,41.45039369509744],[2.060531013421524,41.45037131542611],[2.060686596535782,41.45034384954782],[2.060781037245723,41.45034157167534],[2.060895143308894,41.45036475828278],[2.060963669429544,41.45037190201584],[2.061020807985211,41.45037236811685],[2.061068294425378,41.4503638467456],[2.061125756638719,41.450341849979665],[2.061174142832349,41.4503066097584],[2.06122188271021,41.45022895201828],[2.061246145987656,41.45012285504191],[2.061284529837333,41.45005108304764],[2.061332251122741,41.45000748811943],[2.061441585468232,41.44997050444692],[2.061666361615672,41.44992346573236],[2.061766489466155,41.44990251189771],[2.061910410933786,41.449891245003265],[2.062019041352752,41.44990312624244],[2.062123984804467,41.449945521838686],[2.062186711823587,41.44998757341077],[2.062267581084025,41.45001022426221],[2.062353901658617,41.4499926007217],[2.06245190457601,41.449953080226],[2.062559298147397,41.44993807172159],[2.062672922926224,41.44994144055635],[2.062820297318351,41.44996930944188],[2.062968988561978,41.45001853944744],[2.063092307430661,41.450076124377844],[2.063171058750818,41.450104683651396],[2.063248453523947,41.450120840059945],[2.063307787185042,41.45012626976988],[2.063360472511786,41.45012297336857],[2.063473854036438,41.45010375134678],[2.063584232159308,41.45006851677778],[2.063671821368457,41.450040687605494],[2.063999356679591,41.44996200796971],[2.064241306858426,41.44988897693415],[2.06432710066433,41.449856101729594],[2.064443547027925,41.44980576696457],[2.064593434894064,41.4497179336934],[2.064689016865636,41.44967696925888],[2.064801157704393,41.449641240963594],[2.064895051044597,41.44962762624731],[2.065074874665828,41.44964218084795],[2.065250655647429,41.44966130384392],[2.065412062964161,41.44971119704214],[2.065484930415659,41.449726574642646],[2.06557924658587,41.44974071811629],[2.065647554355472,41.44974127258271],[2.065754438735538,41.44972735408278],[2.065822063096996,41.4497103004965],[2.065973899229438,41.44967201011397],[2.066423475427186,41.45006245211582],[2.066590373120118,41.45022008315307],[2.066700421840012,41.45032402109447],[2.066830735183584,41.45044709784547],[2.067020254558827,41.45062609169689],[2.06712900079021,41.45074744773514],[2.067307307454763,41.45100054958523],[2.067394379775854,41.451194658446795],[2.067471351889893,41.451345709883036],[2.067525638811706,41.45145224305129],[2.067573067573325,41.451534656729905],[2.067638673838648,41.45162924957557],[2.067722061197023,41.451757453944396],[2.067754645583521,41.45180755084261],[2.06783830967828,41.45188774958921],[2.067906488560681,41.4519531043271],[2.068071197308266,41.452097422590576],[2.068291889750336,41.45225104607554],[2.068463049598658,41.452364811823564],[2.068591865397253,41.45245991562246],[2.068712987661047,41.452539395256494],[2.069115084886931,41.45281533225507],[2.069558006821869,41.45261845034354],[2.07008216647529,41.452953923435665],[2.070210364655776,41.45303419146308],[2.070269066655532,41.45307842144778],[2.070352899725737,41.45315148747253],[2.070398698515695,41.45318513386232],[2.070467133253964,41.45322726152921],[2.070503622961473,41.45325948075545],[2.070564559292378,41.45333371604429],[2.07065836060096,41.45344361243925],[2.070689181683072,41.45349349595902],[2.070702853889696,41.45356141801308],[2.070716350463024,41.45361847677581],[2.070732093057505,41.45364953731956],[2.070774479181506,41.45369581477651],[2.070808743054483,41.45371629458233],[2.070833033695394,41.4537253765005],[2.070905979025113,41.45364200733848],[2.071022494840762,41.45352418975557],[2.071146128790219,41.45340925330665],[2.071475740131473,41.45314680696006],[2.071490627236955,41.45313930228563],[2.071515389696811,41.453135300072915],[2.071542217210093,41.45314559573228],[2.07193854215403,41.453509789981375],[2.072393137341661,41.45392818152231],[2.072393128261746,41.45394563777424],[2.072183628633938,41.454230332340536],[2.072212013886038,41.454240944668825],[2.07230096540082,41.45426847512246],[2.07247038633419,41.45433437282478],[2.072578678726185,41.45438394134179],[2.072629484237379,41.45441254863903],[2.072698209217269,41.454463472550714],[2.072769583438306,41.45452942586183],[2.072811763135744,41.454553234131865],[2.07285518098192,41.454564018623785],[2.072918015714485,41.454572525815195],[2.072948578235738,41.45457835232261],[2.073016729575429,41.45460648023543],[2.073056004704774,41.45463362753436],[2.073125511250786,41.4546974380417],[2.073248026195123,41.454830489445584],[2.073299059108396,41.45490959735837],[2.073318866258467,41.4549508582864],[2.073340494778845,41.45501384359915],[2.073366711369692,41.45510512863343],[2.073399237372978,41.4551443431429],[2.073438078178972,41.4551802477854],[2.07364410024333,41.45531979106804],[2.07379761699092,41.45541333413063],[2.073851940059091,41.455449440476656],[2.074012548899367,41.45555621812378],[2.073869920948081,41.455657726228026],[2.073733396845337,41.45574316297496],[2.0735823357365,41.45582628472989],[2.073467874942141,41.45589436714969],[2.073378074960412,41.45596017422992],[2.073581056771936,41.45608807339627],[2.073855403931826,41.45624002888548],[2.073732090772217,41.4564068803509],[2.073588798917224,41.45660535796213],[2.073757607592238,41.45666864221458],[2.073919874605041,41.456754148860725],[2.073795065177298,41.45687712236174],[2.073654662772697,41.45702221848702],[2.073618337063175,41.45705833400942],[2.073559628257637,41.4571146624514],[2.073680602045109,41.457220484044285],[2.073757420839693,41.45728880244177],[2.073903335409296,41.457432261717265],[2.074017753166043,41.457645462597725],[2.074059377799436,41.45780070475256],[2.074061848025479,41.457858471899634],[2.073933113911776,41.457868216656536],[2.073704648702165,41.45788551037299],[2.073591416136938,41.457928420055964],[2.07347570422364,41.45796295982341],[2.073075829582019,41.45808473598904],[2.072736952235034,41.458129565648264],[2.07268711625485,41.458131407021334],[2.072567736380608,41.458137579088984],[2.072567759683751,41.45813762431364],[2.0723389668092,41.45839681472121],[2.071985834380413,41.45834866114046],[2.071971870669263,41.458404732125665],[2.071948649423848,41.45844875315331],[2.071916840271879,41.458489610898255],[2.071840871538755,41.458555328741774],[2.071612454596,41.45872230310873],[2.071571576008012,41.45875553491556],[2.071550502024458,41.458782026794395],[2.071539331066222,41.45880215826741],[2.07154596510245,41.45888444018487],[2.071557969243991,41.45900327234145],[2.071590267870649,41.45923390569217],[2.071505991416429,41.45929729544382],[2.07149917294421,41.459307642883765],[2.071480237617435,41.4593685793038],[2.071467433516556,41.459394912688204],[2.071450986811694,41.4594764454556],[2.071434540064165,41.45955797821938],[2.071402838523356,41.45963658211754],[2.071371162246344,41.45968737141215],[2.071322865528884,41.45976676916462],[2.071306341360022,41.45979775243909],[2.071294896909857,41.45982860412027],[2.071290317745915,41.459846762345265],[2.071270623449026,41.45995659259097],[2.071278494350282,41.45997957796265],[2.071291086144293,41.46000675399597],[2.071311578470989,41.46003942163518],[2.071450231369225,41.460121201307004],[2.071591908503517,41.46014624068283],[2.071759887780065,41.460156476684524],[2.071842624570569,41.460203297067864],[2.071840525050519,41.46026451292991],[2.071845117855483,41.46029596771117],[2.071873913631762,41.46035993613139],[2.071889349660027,41.46038166930146],[2.071898218337099,41.46039120740609],[2.071932221911155,41.460426655554805],[2.071992047183504,41.46048439781142],[2.072006776576924,41.46049522183325],[2.072083036452045,41.46055217064557],[2.072094713081212,41.46056415264754],[2.072109909231637,41.46059180620689],[2.072106851384406,41.46063246789907],[2.072086609637726,41.46066229029919],[2.072056221507578,41.46068317664485],[2.07189918054304,41.460777460845904],[2.071797579523021,41.4608540465305],[2.071695978263893,41.460930632121666],[2.071432658353047,41.46106539339377],[2.071280523746982,41.46114422362487],[2.071036916686428,41.46125804774539],[2.070986951870233,41.46127362918991],[2.070898956040137,41.46133589378183],[2.070714993257476,41.46119932425399],[2.070443916358845,41.461000612453496],[2.0702592848238,41.460861218308956],[2.070167482305383,41.46079647933025],[2.070040692067477,41.46073183256457],[2.069879201923766,41.46085563462987],[2.069805514893977,41.460899166336326],[2.069770555215077,41.460919816969536],[2.069598811041695,41.46102131120011],[2.069555639754008,41.46105182086421],[2.0695144814075,41.46108090791653],[2.069520897604699,41.46108574171112],[2.069301418914998,41.461227815178695],[2.069183642055109,41.46112390848413],[2.069044218220867,41.46100145154031],[2.0690185014538,41.46101412199967],[2.068970761520987,41.460959288360726],[2.068765517149694,41.4607304799767],[2.068582669768935,41.46080031199666],[2.068505535864262,41.4608294391992],[2.068205747373665,41.460940341159535],[2.067897072162563,41.461058885645755],[2.067814907241528,41.461097483455355],[2.06761996025419,41.461187653690274],[2.067579139791602,41.46120653577167],[2.067579201432531,41.46120647812422],[2.067474361466116,41.4612549933616],[2.067419841501025,41.46128022269087],[2.067272180782859,41.46134853621039],[2.067171517756593,41.46139095589577],[2.067178140189967,41.4613898724038],[2.067007971670312,41.461459770853416],[2.066787487972845,41.46155033617125],[2.066507374077377,41.46165749545971],[2.066464986847822,41.461395910727866],[2.06627398183579,41.46132283389353],[2.066064445800597,41.46139642665659],[2.065928080570466,41.46114455474015],[2.065885318539264,41.461164780578],[2.065514573891107,41.46114585527305],[2.06528799299783,41.46087104696013],[2.065480585813006,41.460570516481795],[2.065191033315496,41.460466828066735],[2.064898621480479,41.460578351264296],[2.064816632461342,41.46060944519408],[2.064502740059462,41.460730319458996],[2.064185437956759,41.460856936276684],[2.064178287823089,41.46055451845763],[2.064052343912585,41.46056298823831],[2.063949329732622,41.4605731485806],[2.06380358715421,41.460636996581044],[2.063654125836114,41.46069296871845],[2.063463951048648,41.46077320856308],[2.063448941678344,41.46075780092104],[2.063251486333186,41.460851357131475],[2.06303077930381,41.46094807447782],[2.062934095378657,41.4610010845086],[2.063175522627844,41.46125351281437],[2.063166905768116,41.46128983248851],[2.062928894859982,41.461407091283256],[2.062693090223333,41.461167600245226],[2.062323474501959,41.46139970044388],[2.06254585046362,41.46159902550704],[2.062181355697,41.46179699080256],[2.062219446262814,41.46190599528955],[2.061879336219744,41.4620178877703],[2.061858862087556,41.46195624556174],[2.061632369021056,41.462026134106324],[2.061422918993487,41.462091576419645],[2.06124502757403,41.462141584885025],[2.061331209287262,41.46229590850408],[2.061180766226456,41.4623431502521],[2.060842843016913,41.462449256736264],[2.060678493798521,41.46250143715879],[2.060690128248281,41.462521952160515],[2.060861763252968,41.46282455925491],[2.060885462217754,41.46286634230462],[2.059850975882918,41.463178476339706],[2.059289935305824,41.463347797888524],[2.059236347781164,41.46330813281505],[2.059216139051481,41.463270542009965],[2.059200434664332,41.463231159520305],[2.059185592134281,41.463173562156385],[2.05917917419209,41.46311509688272],[2.059181477937043,41.463057576611014],[2.059189588073944,41.462926360429215],[2.059199299642802,41.462749350333034],[2.059207056772868,41.46260790275778],[2.059087982128291,41.46260440849137],[2.058834165021056,41.462656602377514],[2.058609649408427,41.462702784700866],[2.058608430184483,41.46278713779228],[2.058538989751597,41.462786389702664],[2.058567473475362,41.46282058047031],[2.05856023503256,41.46282430436454],[2.0585818851253,41.46285078296875],[2.058606191415449,41.46287575203914],[2.058318780154952,41.46293555194648],[2.058070675002222,41.462984954016854],[2.058019997961256,41.46299498785714],[2.057865821225948,41.4630260624931],[2.057747806405524,41.463049731646215],[2.057707481607187,41.46305600844732],[2.057638706513481,41.46306222345571],[2.057569470147413,41.463063903937794],[2.057500299530226,41.4630610406969],[2.057459068099044,41.4630571496702],[2.057438181479823,41.46305447909146],[2.057463190024316,41.46314466978351],[2.057488198635897,41.463234860469605],[2.057429437936106,41.46330782091705],[2.057438682633103,41.46340658006016],[2.05738187934403,41.46340807533526],[2.057263478388346,41.46341286137321],[2.057081374302913,41.4637798433237],[2.057029606873261,41.463859758240474],[2.057113315578119,41.46389031917678],[2.057074373049264,41.46396153671377],[2.057034081857082,41.46404642750158],[2.056995300162724,41.4641223100287],[2.056964607404681,41.464176192871214],[2.056930305549397,41.46424859231172],[2.056892181969614,41.464320284874816],[2.056871358249163,41.46436492592313],[2.056838051923028,41.46442892961359],[2.056550430837255,41.464342263501024],[2.056529914095431,41.464349147410296],[2.056419903061367,41.46431584050161],[2.056231451041303,41.464687630282235],[2.0560591555854,41.464634992542436],[2.05580279850883,41.46456250634202],[2.055564292200462,41.464491949498075],[2.055569420544868,41.4644826379226],[2.055386115668184,41.46442793122421],[2.055321330608031,41.46440629758436],[2.055329797703311,41.464390008293954],[2.055404405285529,41.46425095138146],[2.055415667465406,41.46422989449749],[2.055363247594781,41.46421386354409],[2.055374715064731,41.46419433960188],[2.055288229774604,41.46416741836194],[2.055079287051919,41.464104686289936],[2.054968211060912,41.46407196687495],[2.054871879182587,41.46426021715894],[2.054846200619064,41.464253133683805],[2.054522640066708,41.464180155835784],[2.054491820227535,41.464235225941806],[2.054173482862032,41.464145635390004],[2.053911281167468,41.464288643315875],[2.053939413490906,41.46429579220428],[2.053785398237397,41.464408541507176],[2.053723814586427,41.464451261607145],[2.053588322181737,41.46451547808581],[2.053570387526459,41.464557832353606],[2.053522956431052,41.46454483470993],[2.052952024766161,41.46491399984229],[2.052961361715847,41.46462189563333],[2.052714678737935,41.464605733172085],[2.052509141006468,41.46459456035132],[2.052342367734409,41.464583936512405],[2.052303777222122,41.464581477461174],[2.05230094461173,41.46460581377867],[2.05228027518123,41.464797998939765],[2.05197874273667,41.464779019892255],[2.051842191163811,41.464770238874365],[2.051848747833246,41.46469823393601],[2.051645871613676,41.46468760025642],[2.051637159790999,41.46468144850435],[2.051644289791885,41.46457008609959],[2.051362117165295,41.464551268397116],[2.051144233625194,41.46453677209015],[2.051130723690065,41.46464214601314],[2.051043663588916,41.46463585272837],[2.050956441759989,41.464626735219376],[2.050777277646092,41.46461652469746],[2.050784502635453,41.46456223333911],[2.050259498684496,41.46452516084264],[2.050182134025277,41.464467433764995],[2.050128065392546,41.46446353776304],[2.050020127488684,41.464456035564176],[2.049775278530543,41.4644390172296],[2.049768578928071,41.46448865557231],[2.049756348960163,41.46457919575349],[2.04953164708142,41.464566684774915],[2.049437124133775,41.464561409533744],[2.049304731958767,41.464554037981394],[2.049265594869694,41.46455184118948],[2.049137797169461,41.46454473257879],[2.049082537684871,41.46454284389822],[2.049083032506033,41.464539299083114],[2.048944690154315,41.464536768960215],[2.04879468917806,41.46453227780013],[2.048799704353477,41.464488975790864],[2.048422376019026,41.46445829442719],[2.048337905181875,41.46445013629551],[2.048324996226538,41.46452152270837],[2.04831670058513,41.464567220554756],[2.048293093568605,41.4646978483736],[2.047952996930077,41.46462024767809],[2.047896656911183,41.464736499127625],[2.047836324189785,41.464861179863554],[2.047595706015037,41.464797268082854],[2.047566033332114,41.46485863294666],[2.047507600427781,41.46497955071162],[2.047403798945396,41.465194337055685],[2.047286541106005,41.465160822949294],[2.047205041848792,41.4651378280915],[2.047004980152571,41.46508088914011],[2.046640773064293,41.46497785080554],[2.046525069189506,41.465038637905955],[2.046408014053226,41.46532172449535],[2.046207546477318,41.46526838824623],[2.046098141702366,41.46550676299463],[2.045848015211486,41.46543518660486],[2.045627936840772,41.46548249282808],[2.045518341399912,41.46561549008474],[2.04547319850339,41.465669821640184],[2.04540963127117,41.465748111890896],[2.045345245508531,41.4658238607942],[2.045105888172673,41.46570451936999],[2.04500262736144,41.46583363478119],[2.044754672082418,41.46576443634505],[2.044641165144779,41.46582544693644],[2.044532793774396,41.46601388219114],[2.044399011572108,41.46597376969446],[2.044268969439828,41.46625897103294],[2.043829092374188,41.46613499737573],[2.043633561649353,41.46617682442544],[2.04353580762967,41.46638489291718],[2.043274050302546,41.4663128653853],[2.043262953201546,41.46630981270573],[2.043223532572549,41.46638671118091],[2.043216499805239,41.46638449996138],[2.043188967653903,41.46644247667768],[2.043129404941086,41.46656791347448],[2.04302620008919,41.466538881252575],[2.042984222470345,41.46662230889285],[2.042921491793786,41.466694888941504],[2.04289620954271,41.466724160869234],[2.042870927268728,41.46675343279128],[2.042840098832736,41.466789593199216],[2.042586947042861,41.46666330277897],[2.042523008896759,41.46673595622274],[2.042355069602784,41.46692330836508],[2.042339952178366,41.46694480926326],[2.042294656248498,41.466921607730214],[2.042155242004593,41.46684467313247],[2.04212167340051,41.46688106733111],[2.041992613317647,41.467037658078425],[2.041914697989172,41.467132424532146],[2.041750021536266,41.46705595462409],[2.041686951780012,41.4671318076269],[2.041467619559261,41.46725678692864],[2.041298526426856,41.467353838105325],[2.041214117081602,41.467270627816546],[2.04111984888342,41.46732333030331],[2.040908564620798,41.467445602425535],[2.041028244539437,41.467558890961556],[2.04088715387579,41.46764774122962],[2.040763814371035,41.46755159788324],[2.04064888076046,41.46744630309621],[2.040604813259265,41.46738727475544],[2.040598206400922,41.46737738403343],[2.040580623686437,41.467351558323585],[2.040565521832214,41.46732103413488],[2.040524877797602,41.46733708386676],[2.040454057097361,41.46716732447747],[2.040413519246559,41.46691334516204],[2.040230091617479,41.46664792629059],[2.040116169079969,41.466549709236716],[2.039994144540926,41.466479426389824],[2.039896118485863,41.466434886741986],[2.039676763581326,41.466289750332336],[2.039391509586535,41.466000422187875],[2.039261267535417,41.46590802161539],[2.039132795127028,41.46587032524736],[2.038988270908221,41.46584805989652],[2.038794426751212,41.465786011758034],[2.038640287688794,41.46575542528769],[2.038475965936617,41.46575496830883],[2.038334498673518,41.46577301402124],[2.038185336633572,41.465817547625335],[2.038076703798076,41.465837698584885],[2.037889189343791,41.465841624933155],[2.037712452907081,41.465857543868],[2.037511180203522,41.46587567248322],[2.037354679765135,41.46585088980942],[2.037258218599915,41.46578873790337],[2.037173361184218,41.46568273424149],[2.03705197768092,41.465577340539944],[2.036915678072282,41.465492880675896],[2.036827832276809,41.46542439130216],[2.036738405580972,41.46529820590538],[2.036668601574886,41.46516211308176],[2.036643112207779,41.46507491785785],[2.036585423478635,41.465024992672554],[2.036493588799411,41.464979359624756],[2.036390624415734,41.46494553611382],[2.036339655817611,41.46492879302526],[2.0362724726192,41.46495095610111],[2.036140648362581,41.4649754890506],[2.035982179551123,41.465004980418826],[2.035910798810468,41.46501025735654],[2.035844422933259,41.46500505404234],[2.035747368055532,41.464983182242094],[2.035654235180719,41.464923924503466],[2.035589516427376,41.46487473468296],[2.035530211782429,41.46480834452295],[2.035489152741088,41.46474754107265],[2.035283443009725,41.46448683776212],[2.035241938936197,41.46443644976456],[2.035191159169369,41.46440352522445],[2.035147640823675,41.464381430543135],[2.035084653689419,41.46436234607088],[2.034964204384563,41.46435858946747],[2.034793665251571,41.464367231096645],[2.034692309144293,41.46438927108521],[2.034613534502943,41.46444812433807],[2.034534759719125,41.46450697753483],[2.034331178054006,41.46460964799578],[2.034257162518806,41.46467586571903],[2.034139877906773,41.464822941683714],[2.034058927039099,41.46491042677634],[2.033982697628538,41.46497277771996],[2.0339036365579,41.46499867582607],[2.032136469354782,41.46550872299187],[2.032080910311988,41.465552014350955],[2.03201815855148,41.46557397248011],[2.031923066029692,41.465583092952684],[2.031733179948642,41.465640355729775],[2.031558022280764,41.46571229177956],[2.031482490413991,41.46576588680492],[2.031331901259608,41.46581692053346],[2.030911088421513,41.46590591259733],[2.030692207286827,41.4659331688472],[2.030526250938205,41.46594797417731],[2.030373417141285,41.4659452411907],[2.030127849528038,41.465931556821744],[2.029955244947727,41.46593590997641],[2.029559958105418,41.46595774460706],[2.029151768588628,41.46602060693669],[2.0289010716519,41.46604528973631],[2.02886360744665,41.46605504452456],[2.028843911453843,41.46608141055906],[2.028633125297483,41.46621562887905],[2.028294595138213,41.46640099912206],[2.028102847298493,41.4664584637619],[2.028012388677582,41.46648381192823],[2.027986797806043,41.466501033866884],[2.027806760384614,41.46675679476632]]}}],"metadata":{"description":{"title":"EMD Valldoreix","description":"","keywords":"emd, valldoreix","generated_on":"2025-11-21T08:54:23.479Z"},"style":{"shapetype":"polygon","stroke_color":"#838184","stroke_width":"3","stroke_opacity":"1","stroke_dash_array":"5","fill_color":"#fae9e9","fill_opacity":"0"},"style_rules":[],"design":{"interactive":false,"popup":null,"tooltip":null,"cluster":null}}}